{
  "type": "FeatureCollection",
  "features": [
    {
      "type": "Feature",
      "properties": {
        "norad_id": 38867,
        "name": "INTELSAT 23 (IS-23)",
        "group": "intelsat",
        "lat": 0.020973313815468693,
        "lon": 99.46357239530562,
        "alt_km": 35787.59715352464,
        "timestamp": "2025-12-26T03:50:11.755580+00:00",
        "meta_object_name": "INTELSAT 23 (IS-23)",
        "meta_object_id": "2012-057A",
        "meta_epoch": "2025-12-25T04:25:47.526240",
        "meta_mean_motion": 1.00274029,
        "meta_eccentricity": 5.237e-05,
        "meta_inclination": 0.0134,
        "meta_ra_of_asc_node": 70.2161,
        "meta_arg_of_pericenter": 232.2564,
        "meta_mean_anomaly": 164.926,
        "meta_ephemeris_type": 0,
        "meta_classification_type": "U",
        "meta_norad_cat_id": 38867,
        "meta_element_set_no": 999,
        "meta_rev_at_epoch": 4821,
        "meta_bstar": 0,
        "meta_mean_motion_dot": -2.63e-06,
        "meta_mean_motion_ddot": 0,
        "tle_line1": "1 38867U 12057A   25359.18457785 -.00000263  00000+0  00000+0 0  9996",
        "tle_line2": "2 38867   0.0134  70.2161 0000523 232.2564 164.9260  1.00274029 48211"
      },
      "geometry": {
        "type": "Point",
        "coordinates": [
          99.46357239530562,
          0.020973313815468693
        ]
      }
    },
    {
      "type": "Feature",
      "properties": {
        "norad_id": 39360,
        "name": "FM-6",
        "group": "intelsat",
        "lat": -0.007266220377484452,
        "lon": 36.25962687728603,
        "alt_km": 35794.86619761574,
        "timestamp": "2025-12-26T03:50:11.755592+00:00",
        "meta_object_name": "FM-6",
        "meta_object_id": "2013-058A",
        "meta_epoch": "2025-12-25T07:36:38.659104",
        "meta_mean_motion": 1.00272197,
        "meta_eccentricity": 0.0002612,
        "meta_inclination": 0.0189,
        "meta_ra_of_asc_node": 76.11,
        "meta_arg_of_pericenter": 104.6769,
        "meta_mean_anomaly": 271.2768,
        "meta_ephemeris_type": 0,
        "meta_classification_type": "U",
        "meta_norad_cat_id": 39360,
        "meta_element_set_no": 999,
        "meta_rev_at_epoch": 4433,
        "meta_bstar": 0,
        "meta_mean_motion_dot": 4e-08,
        "meta_mean_motion_ddot": 0,
        "tle_line1": "1 39360U 13058A   25359.31711411  .00000004  00000+0  00000+0 0  9993",
        "tle_line2": "2 39360   0.0189  76.1100 0002612 104.6769 271.2768  1.00272197 44336"
      },
      "geometry": {
        "type": "Point",
        "coordinates": [
          36.25962687728603,
          -0.007266220377484452
        ]
      }
    },
    {
      "type": "Feature",
      "properties": {
        "norad_id": 40271,
        "name": "INTELSAT 30 (IS-30)",
        "group": "intelsat",
        "lat": 0.01884044024272804,
        "lon": 57.372556523739824,
        "alt_km": 35781.350716565576,
        "timestamp": "2025-12-26T03:50:11.755603+00:00",
        "meta_object_name": "INTELSAT 30 (IS-30)",
        "meta_object_id": "2014-062A",
        "meta_epoch": "2025-12-24T22:55:07.150368",
        "meta_mean_motion": 1.00269678,
        "meta_eccentricity": 0.00015108,
        "meta_inclination": 0.0145,
        "meta_ra_of_asc_node": 31.8875,
        "meta_arg_of_pericenter": 58.3804,
        "meta_mean_anomaly": 252.1734,
        "meta_ephemeris_type": 0,
        "meta_classification_type": "U",
        "meta_norad_cat_id": 40271,
        "meta_element_set_no": 999,
        "meta_rev_at_epoch": 504,
        "meta_bstar": 0,
        "meta_mean_motion_dot": -1.29e-06,
        "meta_mean_motion_ddot": 0,
        "tle_line1": "1 40271U 14062A   25358.95494387 -.00000129  00000+0  00000+0 0  9990",
        "tle_line2": "2 40271   0.0145  31.8875 0001510  58.3804 252.1734  1.00269678  5045"
      },
      "geometry": {
        "type": "Point",
        "coordinates": [
          57.372556523739824,
          0.01884044024272804
        ]
      }
    },
    {
      "type": "Feature",
      "properties": {
        "norad_id": 40333,
        "name": "DIRECTV 14",
        "group": "intelsat",
        "lat": 0.03004772779876128,
        "lon": 53.28829542452485,
        "alt_km": 35785.49532594985,
        "timestamp": "2025-12-26T03:50:11.755615+00:00",
        "meta_object_name": "DIRECTV 14",
        "meta_object_id": "2014-078B",
        "meta_epoch": "2025-12-24T12:37:43.773312",
        "meta_mean_motion": 1.00279829,
        "meta_eccentricity": 3.885e-05,
        "meta_inclination": 0.0184,
        "meta_ra_of_asc_node": 340.4706,
        "meta_arg_of_pericenter": 254.7884,
        "meta_mean_anomaly": 308.2619,
        "meta_ephemeris_type": 0,
        "meta_classification_type": "U",
        "meta_norad_cat_id": 40333,
        "meta_element_set_no": 999,
        "meta_rev_at_epoch": 4029,
        "meta_bstar": 0,
        "meta_mean_motion_dot": -1.06e-06,
        "meta_mean_motion_ddot": 0,
        "tle_line1": "1 40333U 14078B   25358.52620108 -.00000106  00000+0  00000+0 0  9996",
        "tle_line2": "2 40333   0.0184 340.4706 0000388 254.7884 308.2619  1.00279829 40291"
      },
      "geometry": {
        "type": "Point",
        "coordinates": [
          53.28829542452485,
          0.03004772779876128
        ]
      }
    },
    {
      "type": "Feature",
      "properties": {
        "norad_id": 40663,
        "name": "DIRECTV 15",
        "group": "intelsat",
        "lat": 0.017958267681447166,
        "lon": 49.54362920636504,
        "alt_km": 35787.970167664476,
        "timestamp": "2025-12-26T03:50:11.755627+00:00",
        "meta_object_name": "DIRECTV 15",
        "meta_object_id": "2015-026A",
        "meta_epoch": "2025-12-25T16:00:02.810880",
        "meta_mean_motion": 1.00267803,
        "meta_eccentricity": 3.37e-05,
        "meta_inclination": 0.018,
        "meta_ra_of_asc_node": 26.1792,
        "meta_arg_of_pericenter": 146.2748,
        "meta_mean_anomaly": 59.0835,
        "meta_ephemeris_type": 0,
        "meta_classification_type": "U",
        "meta_norad_cat_id": 40663,
        "meta_element_set_no": 999,
        "meta_rev_at_epoch": 3872,
        "meta_bstar": 0,
        "meta_mean_motion_dot": -8e-07,
        "meta_mean_motion_ddot": 0,
        "tle_line1": "1 40663U 15026A   25359.66669920 -.00000080  00000+0  00000+0 0  9998",
        "tle_line2": "2 40663   0.0180  26.1792 0000337 146.2748  59.0835  1.00267803 38729"
      },
      "geometry": {
        "type": "Point",
        "coordinates": [
          49.54362920636504,
          0.017958267681447166
        ]
      }
    },
    {
      "type": "Feature",
      "properties": {
        "norad_id": 40664,
        "name": "SKY MEXICO-1",
        "group": "intelsat",
        "lat": 0.03171668502572798,
        "lon": 73.692666132678,
        "alt_km": 35795.324927172886,
        "timestamp": "2025-12-26T03:50:11.755639+00:00",
        "meta_object_name": "SKY MEXICO-1",
        "meta_object_id": "2015-026B",
        "meta_epoch": "2025-12-25T05:41:31.709184",
        "meta_mean_motion": 1.00269983,
        "meta_eccentricity": 0.0002553,
        "meta_inclination": 0.0152,
        "meta_ra_of_asc_node": 8.8058,
        "meta_arg_of_pericenter": 281.657,
        "meta_mean_anomaly": 170.1492,
        "meta_ephemeris_type": 0,
        "meta_classification_type": "U",
        "meta_norad_cat_id": 40664,
        "meta_element_set_no": 999,
        "meta_rev_at_epoch": 3871,
        "meta_bstar": 0,
        "meta_mean_motion_dot": -2.13e-06,
        "meta_mean_motion_ddot": 0,
        "tle_line1": "1 40664U 15026B   25359.23717256 -.00000213  00000+0  00000+0 0  9996",
        "tle_line2": "2 40664   0.0152   8.8058 0002553 281.6570 170.1492  1.00269983 38714"
      },
      "geometry": {
        "type": "Point",
        "coordinates": [
          73.692666132678,
          0.03171668502572798
        ]
      }
    },
    {
      "type": "Feature",
      "properties": {
        "norad_id": 40874,
        "name": "INTELSAT 34 (IS-34)",
        "group": "intelsat",
        "lat": 0.021585204680611543,
        "lon": 96.93905001275952,
        "alt_km": 35785.86694634371,
        "timestamp": "2025-12-26T03:50:11.755651+00:00",
        "meta_object_name": "INTELSAT 34 (IS-34)",
        "meta_object_id": "2015-039A",
        "meta_epoch": "2025-12-25T09:22:44.541120",
        "meta_mean_motion": 1.00269606,
        "meta_eccentricity": 5.68e-05,
        "meta_inclination": 0.0095,
        "meta_ra_of_asc_node": 327.8629,
        "meta_arg_of_pericenter": 196.7896,
        "meta_mean_anomaly": 14.6844,
        "meta_ephemeris_type": 0,
        "meta_classification_type": "U",
        "meta_norad_cat_id": 40874,
        "meta_element_set_no": 999,
        "meta_rev_at_epoch": 3788,
        "meta_bstar": 0,
        "meta_mean_motion_dot": -2.64e-06,
        "meta_mean_motion_ddot": 0,
        "tle_line1": "1 40874U 15039A   25359.39079330 -.00000264  00000+0  00000+0 0  9990",
        "tle_line2": "2 40874   0.0095 327.8629 0000568 196.7896  14.6844  1.00269606 37884"
      },
      "geometry": {
        "type": "Point",
        "coordinates": [
          96.93905001275952,
          0.021585204680611543
        ]
      }
    }
  ]
}